     2.100          NAVIGATION                              RINEX VERSION / TYPE
fic2rin                                 04/25/2015 00:29:15 PGM / RUN BY / DATE
                                                            END OF HEADER
24 15  4 24  8  0  0.0 -.471714884043D-04 -.682121026330D-12  .000000000000D+00
     .230000000000D+02  .695000000000D+02  .449911597767D-08 -.159532071035D+01
     .365264713764D-05  .321796420030D-02  .617839396000D-05  .515367905235D+04
     .460800000000D+06 -.540167093277D-07  .181742554572D+01 -.987201929092D-07
     .953549803200D+00  .258843750000D+03  .356422849002D+00 -.811890961375D-08
     .242867259253D-10  .100000000000D+01  .184100000000D+04  .000000000000D+00
     .240000000000D+01  .000000000000D+00  .232830643654D-08  .230000000000D+02
     .453606000000D+06  .400000000000D+01
25 15  4 24  8  0  0.0 -.226502306759D-04 -.363797880709D-11  .000000000000D+00
     .670000000000D+02 -.285625000000D+02  .409338479162D-08  .270159718316D+01
    -.143609941006D-05  .453983061016D-02  .408664345741D-05  .515369255829D+04
     .460800000000D+06  .558793544769D-07  .287980576009D+01 -.931322574615D-07
     .978299167459D+00  .310875000000D+03  .698888513020D+00 -.803676333488D-08
     .796461747257D-10  .100000000000D+01  .184100000000D+04  .000000000000D+00
     .240000000000D+01  .000000000000D+00  .558793544769D-08  .670000000000D+02
     .453606000000D+06  .400000000000D+01
26 15  4 24  8  0  0.0  .224802643061D-04  .579802872380D-11  .000000000000D+00
     .150000000000D+02 -.218125000000D+02  .462197823823D-08  .898847638921D+00
    -.113435089588D-05  .237988191657D-03  .361166894436D-05  .515355933189D+04
     .460800000000D+06 -.204890966415D-07  .287780873062D+01 -.484287738800D-07
     .960418810693D+00  .309593750000D+03  .112709941468D+01 -.837499170916D-08
     .335728270144D-10  .100000000000D+01  .184100000000D+04  .000000000000D+00
     .240000000000D+01  .000000000000D+00  .745058059692D-08  .150000000000D+02
     .453606000000D+06  .400000000000D+01
27 15  4 24  8  0  0.0  .671851448715D-04  .261479726760D-11  .000000000000D+00
     .970000000000D+02 -.880937500000D+02  .435732435719D-08  .446086487853D+00
    -.452250242233D-05  .235956825782D-02  .831112265587D-05  .515369271088D+04
     .460800000000D+06  .577419996262D-07 -.235947407165D+01  .204890966415D-07
     .967034244744D+00  .223437500000D+03  .170631966203D+00 -.801890544817D-08
     .546451333320D-10  .100000000000D+01  .184100000000D+04  .000000000000D+00
     .240000000000D+01  .000000000000D+00  .139698386192D-08  .970000000000D+02
     .453606000000D+06  .400000000000D+01
28 15  4 24  8  0  0.0  .435147900134D-03  .261479726760D-11  .000000000000D+00
     .370000000000D+02 -.243437500000D+02  .404123976243D-08  .117720358794D+01
    -.150501728058D-05  .195421911776D-01  .447779893875D-05  .515369253731D+04
     .460800000000D+06 -.303611159325D-06  .295007096915D+01 -.244006514549D-06
     .988961110451D+00  .309906250000D+03 -.166449472589D+01 -.822855703814D-08
     .225009372544D-10  .100000000000D+01  .184100000000D+04  .000000000000D+00
     .240000000000D+01  .000000000000D+00 -.111758708954D-07  .370000000000D+02
     .453606000000D+06  .400000000000D+01
29 15  4 24  8  0  0.0  .606267247349D-03  .250111042988D-11  .000000000000D+00
     .300000000000D+02 -.641250000000D+02  .416660212713D-08  .305337619328D+01
    -.338628888130D-05  .135671859607D-02  .869482755661D-05  .515377635193D+04
     .460800000000D+06 -.204890966415D-07 -.230258164836D+01  .726431608200D-07
     .972953598966D+00  .214125000000D+03 -.665561192552D+00 -.786711341114D-08
     .155363614375D-09  .100000000000D+01  .184100000000D+04  .000000000000D+00
     .240000000000D+01  .000000000000D+00 -.977888703346D-08  .300000000000D+02
     .453606000000D+06  .400000000000D+01
30 15  4 24  8  0  0.0 -.679618678987D-04  .432009983342D-11  .000000000000D+00
     .960000000000D+02  .636250000000D+02  .454126059030D-08 -.221435668119D+01
     .332482159138D-05  .127681880258D-02  .654347240925D-05  .515374949074D+04
     .460800000000D+06  .130385160446D-07  .190756509523D+01  .149011611938D-07
     .956073111597D+00  .251781250000D+03  .284924155540D+01 -.816284001505D-08
     .101789954246D-09  .100000000000D+01  .184100000000D+04  .000000000000D+00
     .240000000000D+01  .000000000000D+00  .325962901115D-08  .960000000000D+02
     .453606000000D+06  .400000000000D+01
32 15  4 24  8  0  0.0 -.168243888766D-03  .954969436862D-11  .000000000000D+00
     .380000000000D+02  .209375000000D+01  .519128766654D-08 -.189628892853D+01
     .130385160446D-06  .112592320656D-01  .690110027790D-05  .515377992439D+04
     .460800000000D+06  .335276126862D-07 -.179473863555D+00 -.260770320892D-06
     .947313714047D+00  .237000000000D+03  .372346122739D-01 -.832284667997D-08
    -.625026034843D-10  .100000000000D+01  .184100000000D+04  .000000000000D+00
     .240000000000D+01  .000000000000D+00 -.372529029846D-08  .380000000000D+02
     .453606000000D+06  .400000000000D+01
23 15  4 24  7 59 44.0 -.103945378214D-03 -.250111042988D-11  .000000000000D+00
     .280000000000D+02  .264687500000D+02  .473448292450D-08 -.848296577837D+00
     .124797224998D-05  .100427966099D-01  .896118581295D-05  .515362917137D+04
     .460784000000D+06  .242143869400D-06  .790216686394D+00  .372529029846D-08
     .948949724594D+00  .199343750000D+03 -.269588669852D+01 -.814069623553D-08
    -.448590114150D-09  .100000000000D+01  .184100000000D+04  .000000000000D+00
     .240000000000D+01  .000000000000D+00 -.200234353542D-07  .280000000000D+02
     .457956000000D+06  .400000000000D+01
30 15  4 24  7 59 44.0 -.679609365761D-04  .432009983342D-11  .000000000000D+00
     .800000000000D+01  .636250000000D+02  .454161774804D-08 -.221669294527D+01
     .332482159138D-05  .127681763843D-02  .654347240925D-05  .515374948692D+04
     .460784000000D+06  .130385160446D-07  .190756523567D+01  .149011611938D-07
     .956073110134D+00  .251781250000D+03  .284924416963D+01 -.816284001505D-08
     .101789954246D-09  .100000000000D+01  .184100000000D+04  .000000000000D+00
     .240000000000D+01  .000000000000D+00  .325962901115D-08  .800000000000D+01
     .459936000000D+06  .400000000000D+01
23 15  4 24  9 59 44.0 -.103963539004D-03 -.250111042988D-11  .000000000000D+00
     .290000000000D+02  .305000000000D+02  .484913055718D-08  .201919779912D+00
     .155530869961D-05  .100435790373D-01  .854209065437D-05  .515363062668D+04
     .467984000000D+06  .651925802231D-07  .790157404565D+00  .745058059692D-07
     .948945758623D+00  .203968750000D+03 -.269589314560D+01 -.829391690350D-08
    -.463947896721D-09  .100000000000D+01  .184100000000D+04  .000000000000D+00
     .240000000000D+01  .000000000000D+00 -.200234353542D-07  .290000000000D+02
     .460806000000D+06  .400000000000D+01
30 15  4 24  9 59 44.0 -.679302029312D-04  .432009983342D-11  .000000000000D+00
     .900000000000D+01  .732812500000D+02  .444804242168D-08 -.116511793746D+01
     .374205410480D-05  .127660844009D-02  .697560608387D-05  .515375297546D+04
     .467984000000D+06 -.726431608200D-07  .190750701153D+01 -.484287738800D-07
     .956073698227D+00  .242656250000D+03  .284780224882D+01 -.812962434577D-08
     .217866217860D-10  .100000000000D+01  .184100000000D+04  .000000000000D+00
     .240000000000D+01  .000000000000D+00  .325962901115D-08  .900000000000D+01
     .460806000000D+06  .400000000000D+01
 1 15  4 24 10  0  0.0 -.640470534563D-05  .454747350886D-12  .000000000000D+00
     .112000000000D+03 -.128750000000D+02  .464340770228D-08 -.701629527035D+00
    -.612810254097D-06  .412925006822D-02  .909157097340D-05  .515366493225D+04
     .468000000000D+06  .100582838058D-06 -.130246367071D+01  .428408384323D-07
     .961760069579D+00  .204093750000D+03  .374847162597D+00 -.801711965950D-08
     .387158983869D-09  .100000000000D+01  .184100000000D+04  .000000000000D+00
     .240000000000D+01  .000000000000D+00  .558793544769D-08  .112000000000D+03
     .460806000000D+06  .400000000000D+01
 2 15  4 24 10  0  0.0  .561703462154D-03  .227373675443D-11  .000000000000D+00
     .580000000000D+02 -.746875000000D+01  .524307553800D-08 -.242297237613D+00
    -.247731804848D-06  .146113418741D-01  .867247581482D-05  .515380395508D+04
     .468000000000D+06  .111758708954D-07 -.133931593911D+01  .188127160072D-06
     .940378851834D+00  .206781250000D+03 -.227836547093D+01 -.849428239239D-08
     .349657421778D-09  .100000000000D+01  .184100000000D+04  .000000000000D+00
     .240000000000D+01  .000000000000D+00 -.204890966415D-07  .580000000000D+02
     .460806000000D+06  .400000000000D+01
 3 15  4 24 10  0  0.0  .306980684400D-03  .126192389871D-10  .000000000000D+00
     .350000000000D+02  .643750000000D+01  .496342103212D-08  .130408922871D+01
     .452622771263D-06  .925395986997D-03  .706501305103D-05  .515369474411D+04
     .468000000000D+06  .353902578354D-07 -.261787964360D+00  .130385160446D-07
     .959577954639D+00  .244000000000D+03 -.271752176181D+01 -.817426906255D-08
    -.764317551180D-10  .100000000000D+01  .184100000000D+04  .000000000000D+00
     .240000000000D+01  .000000000000D+00  .186264514923D-08  .350000000000D+02
     .460806000000D+06  .400000000000D+01
 4 15  4 24 10  0  0.0 -.123344361782D-04 -.125055521494D-11  .000000000000D+00
     .790000000000D+02 -.718750000000D+01  .522843207090D-08 -.950988960713D+00
    -.147148966789D-06  .111908800900D-01  .898540019989D-05  .515370049667D+04
     .468000000000D+06  .484287738800D-07 -.132399732891D+01  .283122062683D-06
     .939434661099D+00  .196968750000D+03  .105442756201D+01 -.838534928346D-08
     .377158567311D-09  .100000000000D+01  .184100000000D+04  .000000000000D+00
     .240000000000D+01  .000000000000D+00 -.651925802231D-08  .790000000000D+02
     .460806000000D+06  .400000000000D+01
